format  = 'OEF1.1'       ! file format
rectype = 'ML'           ! record type (1L/ML)
refsys  = ECLM J2000     ! default reference system
END_OF_HEADER
1999AN10
! Equinoctial elements: a, e*sin(LP), e*cos(LP), tan(i/2)*sin(LN), tan(i/2)*cos(LN), mean long.
 EQU   1.45881790374100E+00 -0.381737659083265 -0.412484762706489 -0.259140245917247  0.254652329286453 171.4443181361567
 MJD     52470.00000000 TDT
 MAG  17.890  0.150
! RMS    3.56009E-08   3.17293E-07   9.53709E-08   4.52052E-07   2.89333E-07   5.22791E-05
! EIG   5.60478E-09   5.12855E-08   7.84863E-08   1.11388E-07   5.25995E-07   9.66309E-07
! WEA  -0.03572  -0.30377   0.05172   0.10875  -0.05784   0.94266
 COV   1.267424731500671E-15  9.891332909168475E-15 -1.275274202616694E-15
 COV  -2.245834874661182E-15  1.178309842119069E-15 -1.818694618576766E-12
 COV   1.006748647558248E-13 -1.769135885811372E-14  4.055869427087650E-15
 COV  -5.140630855857403E-15 -1.534931789020562E-11  9.095612781717637E-15
 COV   1.162570841902761E-14 -5.229630030504838E-15  2.482067357238699E-12
 COV   2.043509823152302E-13 -1.245251383818415E-13  4.416946740820947E-12
 COV   8.371385304332346E-14 -2.241386457911575E-12  2.733104467143447E-09
 NOR   3.169716229008638E+16  8.265624893636720E+14 -1.019652726742643E+15
 NOR  -3.523036335671708E+14 -2.597942004955631E+14  2.701663390703400E+13
 NOR   1.758811905303921E+14  9.307507319318469E+13 -4.991526013629296E+13
 NOR  -2.883206017819838E+13  1.510279523047228E+12  2.851443543470315E+14
 NOR  -4.499936058791183E+13 -3.907174701060314E+13 -3.740657017368028E+11
 NOR   7.203722820972992E+13  9.246355346090600E+13 -5.144861949301172E+11
 NOR   1.399902018183893E+14 -3.339405877521680E+11  2.772275724930325E+10
